{"type": "FeatureCollection", "features": [ {"type": "Feature", "properties": {"norad_id": 33867, "name": "IRIDIUM 33 DEB", "group": "iridium-33-debris", "lat": -6.523865119563645, "lon": -9.854587487690054, "alt_km": 374.46051948655804, "timestamp": "2025-12-11T20:41:15.465606+00:00", "meta": {"OBJECT_NAME": "IRIDIUM 33 DEB", "OBJECT_ID": "1997-051AL", "EPOCH": "2025-12-11T11:30:45.158112", "MEAN_MOTION": 15.6538919, "ECCENTRICITY": 0.00132443, "INCLINATION": 86.3636, "RA_OF_ASC_NODE": 350.76, "ARG_OF_PERICENTER": 90.5999, "MEAN_ANOMALY": 269.6786, "EPHEMERIS_TYPE": 0, "CLASSIFICATION_TYPE": "U", "NORAD_CAT_ID": 33867, "ELEMENT_SET_NO": 999, "REV_AT_EPOCH": 89491, "BSTAR": 0.011411121, "MEAN_MOTION_DOT": 0.01268862, "MEAN_MOTION_DDOT": 0}, "tle": {"line1": "1 33867U 97051AL  25345.47968933  .01268862  00000+0  11411-1 0  9998", "line2": "2 33867  86.3636 350.7600 0013244  90.5999 269.6786 15.65389190894919"}}, "geometry": {"type": "Point", "coordinates": [-9.854587487690054, -6.523865119563645]}}, {"type": "Feature", "properties": {"norad_id": 33870, "name": "IRIDIUM 33 DEB", "group": "iridium-33-debris", "lat": 79.49865673657087, "lon": 78.63898645828488, "alt_km": 734.7484069802495, "timestamp": "2025-12-11T20:41:15.465617+00:00", "meta": {"OBJECT_NAME": "IRIDIUM 33 DEB", "OBJECT_ID": "1997-051AP", "EPOCH": "2025-12-11T05:37:02.620704", "MEAN_MOTION": 14.45838487, "ECCENTRICITY": 0.00213236, "INCLINATION": 86.3744, "RA_OF_ASC_NODE": 58.9059, "ARG_OF_PERICENTER": 182.8727, "MEAN_ANOMALY": 231.2371, "EPHEMERIS_TYPE": 0, "CLASSIFICATION_TYPE": "U", "NORAD_CAT_ID": 33870, "ELEMENT_SET_NO": 999, "REV_AT_EPOCH": 88115, "BSTAR": 0.0012319282, "MEAN_MOTION_DOT": 4.403e-05, "MEAN_MOTION_DDOT": 0}, "tle": {"line1": "1 33870U 97051AP  25345.23405811  .00004403  00000+0  12319-2 0  9994", "line2": "2 33870  86.3744  58.9059 0021323 182.8727 231.2371 14.45838487881151"}}, "geometry": {"type": "Point", "coordinates": [78.63898645828488, 79.49865673657087]}}, {"type": "Feature", "properties": {"norad_id": 33881, "name": "IRIDIUM 33 DEB", "group": "iridium-33-debris", "lat": -83.39965208055632, "lon": 74.01764099990505, "alt_km": 717.7163354407721, "timestamp": "2025-12-11T20:41:15.465628+00:00", "meta": {"OBJECT_NAME": "IRIDIUM 33 DEB", "OBJECT_ID": "1997-051BA", "EPOCH": "2025-12-11T14:32:20.085792", "MEAN_MOTION": 14.56542071, "ECCENTRICITY": 0.00614976, "INCLINATION": 86.3861, "RA_OF_ASC_NODE": 107.2351, "ARG_OF_PERICENTER": 178.2333, "MEAN_ANOMALY": 194.09, "EPHEMERIS_TYPE": 0, "CLASSIFICATION_TYPE": "U", "NORAD_CAT_ID": 33881, "ELEMENT_SET_NO": 999, "REV_AT_EPOCH": 87484, "BSTAR": 0.0035261884, "MEAN_MOTION_DOT": 0.00016145, "MEAN_MOTION_DDOT": 0}, "tle": {"line1": "1 33881U 97051BA  25345.60578803  .00016145  00000+0  35262-2 0  9997", "line2": "2 33881  86.3861 107.2351 0061497 178.2333 194.0900 14.56542071874849"}}, "geometry": {"type": "Point", "coordinates": [74.01764099990505, -83.39965208055632]}}, {"type": "Feature", "properties": {"norad_id": 33884, "name": "IRIDIUM 33 DEB", "group": "iridium-33-debris", "lat": 24.140338573423627, "lon": -171.41629809937936, "alt_km": 643.8547292481453, "timestamp": "2025-12-11T20:41:15.465639+00:00", "meta": {"OBJECT_NAME": "IRIDIUM 33 DEB", "OBJECT_ID": "1997-051BD", "EPOCH": "2025-12-11T10:27:31.158720", "MEAN_MOTION": 14.77392014, "ECCENTRICITY": 0.0009807, "INCLINATION": 86.3697, "RA_OF_ASC_NODE": 10.4065, "ARG_OF_PERICENTER": 328.8934, "MEAN_ANOMALY": 81.4709, "EPHEMERIS_TYPE": 0, "CLASSIFICATION_TYPE": "U", "NORAD_CAT_ID": 33884, "ELEMENT_SET_NO": 999, "REV_AT_EPOCH": 88828, "BSTAR": 0.002752918, "MEAN_MOTION_DOT": 0.0001965, "MEAN_MOTION_DDOT": 0}, "tle": {"line1": "1 33884U 97051BD  25345.43577730  .00019650  00000+0  27529-2 0  9990", "line2": "2 33884  86.3697  10.4065 0009807 328.8934  81.4709 14.77392014888285"}}, "geometry": {"type": "Point", "coordinates": [-171.41629809937936, 24.140338573423627]}}, {"type": "Feature", "properties": {"norad_id": 33886, "name": "IRIDIUM 33 DEB", "group": "iridium-33-debris", "lat": -31.925178736726966, "lon": -110.14314992447626, "alt_km": 770.4409471777126, "timestamp": "2025-12-11T20:41:15.465649+00:00", "meta": {"OBJECT_NAME": "IRIDIUM 33 DEB", "OBJECT_ID": "1997-051BF", "EPOCH": "2025-12-11T11:23:31.797312", "MEAN_MOTION": 14.36050155, "ECCENTRICITY": 0.00122283, "INCLINATION": 86.383, "RA_OF_ASC_NODE": 67.7612, "ARG_OF_PERICENTER": 246.7656, "MEAN_ANOMALY": 124.1555, "EPHEMERIS_TYPE": 0, "CLASSIFICATION_TYPE": "U", "NORAD_CAT_ID": 33886, "ELEMENT_SET_NO": 999, "REV_AT_EPOCH": 88034, "BSTAR": 0.00033597727, "MEAN_MOTION_DOT": 9.97e-06, "MEAN_MOTION_DDOT": 0}, "tle": {"line1": "1 33886U 97051BF  25345.47467358  .00000997  00000+0  33598-3 0  9998", "line2": "2 33886  86.3830  67.7612 0012228 246.7656 124.1555 14.36050155880344"}}, "geometry": {"type": "Point", "coordinates": [-110.14314992447626, -31.925178736726966]}}, {"type": "Feature", "properties": {"norad_id": 33887, "name": "IRIDIUM 33 DEB", "group": "iridium-33-debris", "lat": 35.343959437170504, "lon": -178.8563277475253, "alt_km": 765.2362754126962, "timestamp": "2025-12-11T20:41:15.465660+00:00", "meta": {"OBJECT_NAME": "IRIDIUM 33 DEB", "OBJECT_ID": "1997-051BG", "EPOCH": "2025-12-11T01:55:48.688896", "MEAN_MOTION": 14.37218579, "ECCENTRICITY": 0.0004312, "INCLINATION": 86.3045, "RA_OF_ASC_NODE": 4.1074, "ARG_OF_PERICENTER": 234.0797, "MEAN_ANOMALY": 189.2272, "EPHEMERIS_TYPE": 0, "CLASSIFICATION_TYPE": "U", "NORAD_CAT_ID": 33887, "ELEMENT_SET_NO": 999, "REV_AT_EPOCH": 88141, "BSTAR": 0.00021085031, "MEAN_MOTION_DOT": 6.47e-06, "MEAN_MOTION_DDOT": 0}, "tle": {"line1": "1 33887U 97051BG  25345.08042464  .00000647  00000+0  21085-3 0  9993", "line2": "2 33887  86.3045   4.1074 0004312 234.0797 189.2272 14.37218579881415"}}, "geometry": {"type": "Point", "coordinates": [-178.8563277475253, 35.343959437170504]}}, {"type": "Feature", "properties": {"norad_id": 33953, "name": "IRIDIUM 33 DEB", "group": "iridium-33-debris", "lat": -57.02196727383828, "lon": 48.567739644077896, "alt_km": 727.9594932756054, "timestamp": "2025-12-11T20:41:15.465671+00:00", "meta": {"OBJECT_NAME": "IRIDIUM 33 DEB", "OBJECT_ID": "1997-051BN", "EPOCH": "2025-12-11T11:07:41.316960", "MEAN_MOTION": 14.55307463, "ECCENTRICITY": 0.00184119, "INCLINATION": 86.3843, "RA_OF_ASC_NODE": 54.3329, "ARG_OF_PERICENTER": 106.7147, "MEAN_ANOMALY": 270.7615, "EPHEMERIS_TYPE": 0, "CLASSIFICATION_TYPE": "U", "NORAD_CAT_ID": 33953, "ELEMENT_SET_NO": 999, "REV_AT_EPOCH": 88285, "BSTAR": 0.0022887036, "MEAN_MOTION_DOT": 9.967e-05, "MEAN_MOTION_DDOT": 0}, "tle": {"line1": "1 33953U 97051BN  25345.46367265  .00009967  00000+0  22887-2 0  9992", "line2": "2 33953  86.3843  54.3329 0018411 106.7147 270.7615 14.55307463882851"}}, "geometry": {"type": "Point", "coordinates": [48.567739644077896, -57.02196727383828]}}, {"type": "Feature", "properties": {"norad_id": 33960, "name": "IRIDIUM 33 DEB", "group": "iridium-33-debris", "lat": 12.787344281909196, "lon": -69.21940562678019, "alt_km": 611.1788077573274, "timestamp": "2025-12-11T20:41:15.465681+00:00", "meta": {"OBJECT_NAME": "IRIDIUM 33 DEB", "OBJECT_ID": "1997-051BV", "EPOCH": "2025-12-11T14:56:53.632608", "MEAN_MOTION": 14.85098404, "ECCENTRICITY": 0.00074782, "INCLINATION": 86.2531, "RA_OF_ASC_NODE": 290.0411, "ARG_OF_PERICENTER": 64.1065, "MEAN_ANOMALY": 111.1917, "EPHEMERIS_TYPE": 0, "CLASSIFICATION_TYPE": "U", "NORAD_CAT_ID": 33960, "ELEMENT_SET_NO": 999, "REV_AT_EPOCH": 88850, "BSTAR": 0.0051621197, "MEAN_MOTION_DOT": 0.00044397, "MEAN_MOTION_DDOT": 0}, "tle": {"line1": "1 33960U 97051BV  25345.62284297  .00044397  00000+0  51621-2 0  9995", "line2": "2 33960  86.2531 290.0411 0007478  64.1065 111.1917 14.85098404888506"}}, "geometry": {"type": "Point", "coordinates": [-69.21940562678019, 12.787344281909196]}}, {"type": "Feature", "properties": {"norad_id": 33966, "name": "IRIDIUM 33 DEB", "group": "iridium-33-debris", "lat": 85.27712490370072, "lon": 96.19135865350967, "alt_km": 720.7984791853323, "timestamp": "2025-12-11T20:41:15.465692+00:00", "meta": {"OBJECT_NAME": "IRIDIUM 33 DEB", "OBJECT_ID": "1997-051CB", "EPOCH": "2025-12-11T14:16:19.034400", "MEAN_MOTION": 14.49586801, "ECCENTRICITY": 0.00072721, "INCLINATION": 86.3923, "RA_OF_ASC_NODE": 46.5185, "ARG_OF_PERICENTER": 192.0381, "MEAN_ANOMALY": 300.8829, "EPHEMERIS_TYPE": 0, "CLASSIFICATION_TYPE": "U", "NORAD_CAT_ID": 33966, "ELEMENT_SET_NO": 999, "REV_AT_EPOCH": 88425, "BSTAR": 0.00085094267, "MEAN_MOTION_DOT": 3.286e-05, "MEAN_MOTION_DDOT": 0}, "tle": {"line1": "1 33966U 97051CB  25345.59466475  .00003286  00000+0  85094-3 0  9991", "line2": "2 33966  86.3923  46.5185 0007272 192.0381 300.8829 14.49586801884254"}}, "geometry": {"type": "Point", "coordinates": [96.19135865350967, 85.27712490370072]}}, {"type": "Feature", "properties": {"norad_id": 34071, "name": "IRIDIUM 33 DEB", "group": "iridium-33-debris", "lat": 25.927463424934167, "lon": -163.5706145601277, "alt_km": 721.5520543069288, "timestamp": "2025-12-11T20:41:15.465702+00:00", "meta": {"OBJECT_NAME": "IRIDIUM 33 DEB", "OBJECT_ID": "1997-051CE", "EPOCH": "2025-12-11T11:41:47.097024", "MEAN_MOTION": 14.49457141, "ECCENTRICITY": 0.00099283, "INCLINATION": 86.3459, "RA_OF_ASC_NODE": 18.3725, "ARG_OF_PERICENTER": 111.0549, "MEAN_ANOMALY": 249.1718, "EPHEMERIS_TYPE": 0, "CLASSIFICATION_TYPE": "U", "NORAD_CAT_ID": 34071, "ELEMENT_SET_NO": 999, "REV_AT_EPOCH": 88316, "BSTAR": 0.001052324, "MEAN_MOTION_DOT": 4.049e-05, "MEAN_MOTION_DDOT": 0}, "tle": {"line1": "1 34071U 97051CE  25345.48735066  .00004049  00000+0  10523-2 0  9994", "line2": "2 34071  86.3459  18.3725 0009928 111.0549 249.1718 14.49457141883165"}}, "geometry": {"type": "Point", "coordinates": [-163.5706145601277, 25.927463424934167]}}]}